NORAD_CAT_ID,OBJECT_NAME,OBJECT_TYPE,EPOCH,MEAN_MOTION,ECCENTRICITY,INCLINATION,RA_OF_ASC_NODE,ARG_OF_PERICENTER,MEAN_ANOMALY,BSTAR,MEAN_MOTION_DOT,MEAN_MOTION_DDOT,TLE_LINE0,TLE_LINE1,TLE_LINE2,SEMIMAJOR_AXIS,PERIOD,APOGEE,PERIGEE,DECAYED
54068.0,STARLINK-5222,PAYLOAD,2024-05-20 01:04:48,15.08838751,0.0001798,53.218,60.6976,100.5188,259.6007,6.6697e-07,-2.78e-06,0.0,0 STARLINK-5222,1 54068U 22136T   24141.04501060 -.00000278  00000-0  66697-6 0  9993,2 54068  53.2180  60.6976 0001798 100.5188 259.6007 15.08838751 87411,6917.884,95.438,540.993,538.505,0.0
54068.0,STARLINK-5222,PAYLOAD,2024-05-20 18:34:04,15.08831202,0.000196,53.2189,57.4284,99.7685,260.3529,0.00037849,5.739e-05,0.0,0 STARLINK-5222,1 54068U 22136T   24141.77365922  .00005739  00000-0  37849-3 0  9998,2 54068  53.2189  57.4284 0001960  99.7685 260.3529 15.08831202 88006,6917.907,95.438,541.128,538.416,0.0
54068.0,STARLINK-5222,PAYLOAD,2024-05-21 04:06:22,15.08845347,0.0001696,53.2177,55.6443,99.8936,260.2248,0.0004027,6.128e-05,0.0,0 STARLINK-5222,1 54068U 22136T   24142.17109531  .00006128  00000-0  40270-3 0  9990,2 54068  53.2177  55.6443 0001696  99.8936 260.2248 15.08845347 88064,6917.864,95.437,540.902,538.556,0.0
54068.0,STARLINK-5222,PAYLOAD,2024-05-21 21:35:37,15.08837269,0.0001613,53.2174,52.3707,100.3159,259.8015,0.00015574,2.191e-05,0.0,0 STARLINK-5222,1 54068U 22136T   24142.89974070  .00002191  00000-0  15574-3 0  9992,2 54068  53.2174  52.3707 0001613 100.3159 259.8015 15.08837269 87690,6917.889,95.438,540.87,538.638,0.0
54068.0,STARLINK-5222,PAYLOAD,2024-05-22 03:57:10,15.08839097,0.0001789,53.2184,51.179,108.3616,251.7571,0.00016894,2.402e-05,0.0,0 STARLINK-5222,1 54068U 22136T   24143.16469951  .00002402  00000-0  16894-3 0  9991,2 54068  53.2184  51.1790 0001789 108.3616 251.7571 15.08839097 88218,6917.883,95.438,540.986,538.511,0.0
54068.0,STARLINK-5222,PAYLOAD,2024-05-22 21:26:24,15.08840996,0.0001654,53.2178,47.9072,110.5129,249.604,9.5677e-06,-1.36e-06,0.0,0 STARLINK-5222,1 54068U 22136T   24143.89333911 -.00000136  00000-0  95677-5 0  9998,2 54068  53.2178  47.9072 0001654 110.5129 249.6040 15.08840996 87847,6917.877,95.437,540.887,538.598,0.0
54068.0,STARLINK-5222,PAYLOAD,2024-05-23 03:47:56,15.08843247,0.0001803,53.2183,46.719,114.3466,245.7714,4.9165e-05,4.95e-06,0.0,0 STARLINK-5222,1 54068U 22136T   24144.15829741  .00000495  00000-0  49165-4 0  9996,2 54068  53.2183  46.7190 0001803 114.3466 245.7714 15.08843247 87884,6917.87,95.437,540.983,538.488,0.0
54068.0,STARLINK-5222,PAYLOAD,2024-05-23 21:17:11,15.08843355,0.0001543,53.2172,43.4496,100.0487,260.0679,4.851e-05,4.84e-06,0.0,0 STARLINK-5222,1 54068U 22136T   24144.88693796  .00000484  00000-0  48510-4 0  9996,2 54068  53.2172  43.4496 0001543 100.0487 260.0679 15.08843355 88477,6917.87,95.437,540.803,538.668,0.0
54068.0,STARLINK-5222,PAYLOAD,2024-05-24 03:38:43,15.08845086,0.0001635,53.2181,42.2596,103.3353,256.7821,8.6073e-05,1.082e-05,0.0,0 STARLINK-5222,1 54068U 22136T   24145.15189580  .00001082  00000-0  86073-4 0  9999,2 54068  53.2181  42.2596 0001635 103.3353 256.7821 15.08845086 88031,6917.865,95.437,540.861,538.599,0.0
54068.0,STARLINK-5222,PAYLOAD,2024-05-24 22:43:21,15.08839441,0.0001453,53.2173,38.6955,93.3328,266.783,-7.7606e-05,-1.523e-05,0.0,0 STARLINK-5222,1 54068U 22136T   24145.94677947 -.00001523  00000-0 -77606-4 0  9999,2 54068  53.2173  38.6955 0001453  93.3328 266.7830 15.08839441 88150,6917.882,95.438,540.752,538.742,0.0
54068.0,STARLINK-5222,PAYLOAD,2024-05-25 00:18:44,15.0884194,0.0001534,53.2181,38.3973,79.3359,280.7806,-1.176e-05,-4.75e-06,0.0,0 STARLINK-5222,1 54068U 22136T   24146.01301926 -.00000475  00000-0 -11760-4 0  9993,2 54068  53.2181  38.3973 0001534  79.3359 280.7806 15.08841940 88644,6917.874,95.437,540.801,538.678,0.0
54068.0,STARLINK-5222,PAYLOAD,2024-05-25 09:51:03,15.08845124,0.0001319,53.217,36.6138,100.8029,259.3112,-0.00021247,-3.668e-05,0.0,0 STARLINK-5222,1 54068U 22136T   24146.41045628 -.00003668  00000-0 -21247-3 0  9998,2 54068  53.2170  36.6138 0001319 100.8029 259.3112 15.08845124 88225,6917.865,95.437,540.642,538.817,0.0
54068.0,STARLINK-5222,PAYLOAD,2024-05-26 01:44:55,15.08838947,0.0001349,53.2176,33.6389,107.8686,252.2454,-8.5759e-06,-4.24e-06,0.0,0 STARLINK-5222,1 54068U 22136T   24147.07286160 -.00000424  00000-0 -85759-5 0  9996,2 54068  53.2176  33.6389 0001349 107.8686 252.2454 15.08838947 88805,6917.884,95.438,540.682,538.815,0.0
54068.0,STARLINK-5222,PAYLOAD,2024-05-26 22:24:55,15.08851268,0.0001225,53.2186,29.7731,111.6436,248.4687,2.0741e-05,4.2e-07,0.0,0 STARLINK-5222,1 54068U 22136T   24147.93397806  .00000042  00000-0  20741-4 0  9994,2 54068  53.2186  29.7731 0001225 111.6436 248.4687 15.08851268 88459,6917.846,95.437,540.558,538.864,0.0
54068.0,STARLINK-5222,PAYLOAD,2024-05-27 09:32:36,15.08856902,3.21e-05,53.2186,27.6948,60.5363,299.5661,0.00020682,3.007e-05,0.0,0 STARLINK-5222,1 54068U 22136T   24148.39764794  .00003007  00000-0  20682-3 0  9996,2 54068  53.2186  27.6948 0000321  60.5363 299.5661 15.08856902 88520,6917.829,95.436,539.916,539.472,0.0
54068.0,STARLINK-5222,PAYLOAD,2024-05-27 20:40:20,15.08836798,0.0001486,53.2182,25.6145,82.5636,277.5525,0.00014763,2.062e-05,0.0,0 STARLINK-5222,1 54068U 22136T   24148.86134462  .00002062  00000-0  14763-3 0  9994,2 54068  53.2182  25.6145 0001486  82.5636 277.5525 15.08836798 89070,6917.89,95.438,540.783,538.727,0.0
54068.0,STARLINK-5222,PAYLOAD,2024-05-27 22:15:43,15.08836792,0.0001436,53.2184,25.3172,80.0868,280.0286,0.00012997,1.781e-05,0.0,0 STARLINK-5222,1 54068U 22136T   24148.92758501  .00001781  00000-0  12997-3 0  9991,2 54068  53.2184  25.3172 0001436  80.0868 280.0286 15.08836792 88609,6917.89,95.438,540.749,538.762,0.0
54068.0,STARLINK-5222,PAYLOAD,2024-05-28 01:26:29,15.08839917,0.0001292,53.2185,24.7197,92.4516,267.6624,0.00012291,1.669e-05,0.0,0 STARLINK-5222,1 54068U 22136T   24149.06006216  .00001669  00000-0  12291-3 0  9998,2 54068  53.2185  24.7197 0001292  92.4516 267.6624 15.08839917 88628,6917.881,95.438,540.639,538.852,0.0
54068.0,STARLINK-5222,PAYLOAD,2024-05-28 22:06:29,15.08848092,0.0001289,53.2187,20.8506,84.0483,276.0656,-5.6848e-05,-1.193e-05,0.0,0 STARLINK-5222,1 54068U 22136T   24149.92118054 -.00001193  00000-0 -56848-4 0  9998,2 54068  53.2187  20.8506 0001289  84.0483 276.0656 15.08848092 88754,6917.856,95.437,540.612,538.829,0.0
54068.0,STARLINK-5222,PAYLOAD,2024-05-29 01:17:16,15.08855266,0.0001438,53.219,20.257,91.183,268.9327,-0.00016661,-2.94e-05,0.0,0 STARLINK-5222,1 54068U 22136T   24150.05365849 -.00002940  00000-0 -16661-3 0  9999,2 54068  53.2190  20.2570 0001438  91.1830 268.9327 15.08855266 89256,6917.834,95.437,540.694,538.704,0.0
54068.0,STARLINK-5222,PAYLOAD,2024-05-29 20:21:54,15.08837268,0.0001393,53.2186,16.6885,86.0944,274.0207,3.4976e-05,2.69e-06,0.0,0 STARLINK-5222,1 54068U 22136T   24150.84854615  .00000269  00000-0  34976-4 0  9990,2 54068  53.2186  16.6885 0001393  86.0944 274.0207 15.08837268 89378,6917.889,95.438,540.717,538.79,0.0
54068.0,STARLINK-5222,PAYLOAD,2024-05-29 21:57:17,15.08837191,0.0001391,53.2186,16.3911,85.6394,274.4757,3.2548e-05,2.3e-06,0.0,0 STARLINK-5222,1 54068U 22136T   24150.91478634  .00000230  00000-0  32548-4 0  9992,2 54068  53.2186  16.3911 0001391  85.6394 274.4757 15.08837191 88904,6917.889,95.438,540.716,538.792,0.0
54068.0,STARLINK-5222,PAYLOAD,2024-05-30 01:08:03,15.08839314,0.0001316,53.2187,15.7979,91.9798,268.1345,-2.35e-05,-6.62e-06,0.0,0 STARLINK-5222,1 54068U 22136T   24151.04726661 -.00000662  00000-0 -23500-4 0  9992,2 54068  53.2187  15.7979 0001316  91.9798 268.1345 15.08839314 88921,6917.882,95.438,540.658,538.837,0.0
54068.0,STARLINK-5222,PAYLOAD,2024-05-30 21:48:03,15.08848191,0.0001379,53.2187,11.9324,90.9449,269.1701,8.686e-05,1.095e-05,0.0,0 STARLINK-5222,1 54068U 22136T   24151.90837918  .00001095  00000-0  86860-4 0  9992,2 54068  53.2187  11.9324 0001379  90.9449 269.1701 15.08848191 89532,6917.855,95.437,540.674,538.766,0.0
54068.0,STARLINK-5222,PAYLOAD,2024-05-30 21:48:04,15.08830385,0.000148,53.2184,11.9322,100.0817,260.0343,0.00034106,5.143e-05,0.0,0 STARLINK-5222,1 54068U 22136T   24151.90838226  .00005143  00000-0  34106-3 0  9998,2 54068  53.2184  11.9322 0001480 100.0817 260.0343 15.08830385 89057,6917.91,95.438,540.799,538.751,0.0
54068.0,STARLINK-5222,PAYLOAD,2024-05-31 21:38:51,15.088402,0.0001289,53.2183,7.4755,101.082,259.0317,7.2639e-05,8.68e-06,0.0,0 STARLINK-5222,1 54068U 22136T   24152.90198555  .00000868  00000-0  72639-4 0  9996,2 54068  53.2183   7.4755 0001289 101.0820 259.0317 15.08840200 89683,6917.88,95.438,540.636,538.853,0.0
54068.0,STARLINK-5222,PAYLOAD,2024-06-01 13:32:43,15.08835941,0.0001905,53.2187,4.5028,90.3543,269.7667,5.0267e-05,5.12e-06,0.0,0 STARLINK-5222,1 54068U 22136T   24153.56439239  .00000512  00000-0  50267-4 0  9995,2 54068  53.2187   4.5028 0001905  90.3543 269.7667 15.08835941 89306,6917.893,95.438,541.076,538.44,0.0
54068.0,STARLINK-5222,PAYLOAD,2024-06-01 19:54:16,15.08837447,0.0001405,53.2188,3.313,94.0891,266.0261,-6.0451e-05,-1.25e-05,0.0,0 STARLINK-5222,1 54068U 22136T   24153.82935341 -.00001250  00000-0 -60451-4 0  9997,2 54068  53.2188   3.3130 0001405  94.0891 266.0261 15.08837447 89820,6917.888,95.438,540.725,538.781,0.0
54068.0,STARLINK-5222,PAYLOAD,2024-06-02 07:01:57,15.08843376,0.0001557,53.2197,1.2293,82.5948,277.5221,-2.4088e-05,-6.71e-06,0.0,0 STARLINK-5222,1 54068U 22136T   24154.29302894 -.00000671  00000-0 -24088-4 0  9992,2 54068  53.2197   1.2293 0001557  82.5948 277.5221 15.08843376 89898,6917.87,95.437,540.812,538.658,0.0
54068.0,STARLINK-5222,PAYLOAD,2024-06-03 06:52:44,15.08847255,0.0001512,53.2197,356.7696,88.6207,271.4959,3.6225e-06,-2.3e-06,0.0,0 STARLINK-5222,1 54068U 22136T   24155.28662703 -.00000230  00000-0  36225-5 0  9997,2 54068  53.2197 356.7696 0001512  88.6207 271.4959 15.08847255 89564,6917.858,95.437,540.769,538.677,0.0
